SatCatId,ObjectName,LaunchYear,OrbitalPeriod,LaunchMass,StatusCode,Inclination,Status,UcsData,OrbitClassEstimated,LaunchSiteCountry,Owner,UseType,Purpose,LaunchVehicleClass,TLE1,TLE2,MeanMotion,Eccentricity,OrbitClass
49734,STARLINK-3238,2021,95.44,260.0,+,53.22,Active,1,LEO,USA,USA,Commercial,Communications,Falcon,1 49734U 21115L   25128.03608434 -.00000933  00000+0 -40533-4 0  9998,2 49734  53.2190  81.2788 0001463 106.2657 253.8496 15.08838622190509,15.08838622,0.0001463,LEO
49735,STARLINK-3113,2021,95.44,260.0,+,53.22,Active,1,LEO,USA,USA,Commercial,Communications,Falcon,1 49735U 21115M   25128.20810211  .00002154  00000+0  15343-3 0  9991,2 49735  53.2167  90.3624 0001248  79.0725 281.0407 15.08831279190380,15.08831279,0.0001248,LEO
49736,STARLINK-3148,2021,95.44,260.0,+,53.22,Active,1,LEO,USA,USA,Commercial,Communications,Falcon,1 49736U 21115N   25128.23112046  .00000451  00000+0  46454-4 0  9992,2 49736  53.2168  80.2594 0001373  83.4853 276.6295 15.08829925190533,15.08829925,0.0001373,LEO
49737,STARLINK-3225,2021,95.44,260.0,+,53.22,Active,1,LEO,USA,USA,Commercial,Communications,Falcon,1 49737U 21115P   25128.17224076  .00000018  00000+0  19199-4 0  9998,2 49737  53.2180  80.6415 0001534 103.3717 256.7446 15.08835087190526,15.08835087,0.0001534,LEO
49738,STARLINK-3143,2021,95.44,260.0,+,53.22,Active,1,LEO,USA,USA,Commercial,Communications,Falcon,1 49738U 21115Q   25127.86778055 -.00000208  00000+0  50530-5 0  9992,2 49738  53.2173  82.2122 0001454  84.6998 275.4160 15.08839640190479,15.0883964,0.0001454,LEO
49739,STARLINK-3155,2021,95.44,260.0,+,53.22,Active,1,LEO,USA,USA,Commercial,Communications,Falcon,1 49739U 21115R   25128.16026786  .00001247  00000+0  96429-4 0  9993,2 49739  53.2184  90.6946 0000748  40.8844 319.2204 15.08829021190375,15.08829021,7.48e-05,LEO
49740,STARLINK-3226,2021,95.44,260.0,+,53.22,Active,1,LEO,USA,USA,Commercial,Communications,Falcon,1 49740U 21115S   25128.18790867  .00000700  00000+0  62063-4 0  9995,2 49740  53.2180  80.5391 0001450  91.1972 268.9186 15.08843802190526,15.08843802,0.000145,LEO
49741,STARLINK-3244,2021,95.44,260.0,+,53.22,Active,1,LEO,USA,USA,Commercial,Communications,Falcon,1 49741U 21115T   25128.18423046  .00001365  00000+0  10385-3 0  9995,2 49741  53.2170  80.5958 0001437  82.8014 277.3141 15.08843497190529,15.08843497,0.0001437,LEO
49742,STARLINK-3202,2021,95.43,260.0,+,53.22,Active,1,LEO,USA,USA,Commercial,Communications,Falcon,1 49742U 21115U   25128.13175192  .00000426  00000+0  44823-4 0  9999,2 49742  53.2175  80.8214 0001484  89.6953 270.4209 15.08845660190514,15.0884566,0.0001484,LEO
49743,STARLINK-3239,2021,95.44,260.0,+,53.22,Active,1,LEO,USA,USA,Commercial,Communications,Falcon,1 49743U 21115V   25128.04806914 -.00000262  00000+0  16348-5 0  9994,2 49743  53.2179  81.1304 0001520  95.8378 264.2787 15.08835215190500,15.08835215,0.000152,LEO
49744,STARLINK-3231,2021,95.44,260.0,+,53.22,Active,1,LEO,USA,USA,Commercial,Communications,Falcon,1 49744U 21115W   25128.26149642  .00000999  00000+0  80833-4 0  9992,2 49744  53.2170  80.1311 0001438  92.5555 267.5602 15.08844712190535,15.08844712,0.0001438,LEO
49745,STARLINK-3241,2021,95.44,260.0,+,53.22,Active,1,LEO,USA,USA,Commercial,Communications,Falcon,1 49745U 21115X   25128.25783218  .00000644  00000+0  58564-4 0  9998,2 49745  53.2182  80.2223 0001470  84.5567 275.5593 15.08840567190534,15.08840567,0.000147,LEO
49746,STARLINK-3233,2021,95.44,260.0,+,53.22,Active,1,LEO,USA,USA,Commercial,Communications,Falcon,1 49746U 21115Y   25127.28535573 -.00000084  00000+0  12834-4 0  9999,2 49746  53.2174  84.6214 0001606 101.8024 258.3148 15.08839336189272,15.08839336,0.0001606,LEO
49747,STARLINK-3247,2021,95.44,260.0,+,53.22,Active,1,LEO,USA,USA,Commercial,Communications,Falcon,1 49747U 21115Z   25128.26792024 -.00000988  00000+0 -43919-4 0  9997,2 49747  53.2173  80.2111 0002409  97.9850 262.1415 15.08850422190534,15.08850422,0.0002409,LEO
49748,STARLINK-3248,2021,95.44,260.0,+,53.22,Active,1,LEO,USA,USA,Commercial,Communications,Falcon,1 49748U 21115AA  25128.04706862 -.00000192  00000+0  60383-5 0  9990,2 49748  53.2178  80.7761 0001466  88.3004 271.8156 15.08837882190515,15.08837882,0.0001466,LEO
49749,STARLINK-3250,2021,95.44,260.0,+,53.22,Active,1,LEO,USA,USA,Commercial,Communications,Falcon,1 49749U 21115AB  25128.16583456  .00002274  00000+0  16085-3 0  9996,2 49749  53.2181  80.9125 0001585 107.8182 252.2983 15.08862635190517,15.08862635,0.0001585,LEO
49750,STARLINK-3236,2021,95.44,260.0,+,53.22,Active,1,LEO,USA,USA,Commercial,Communications,Falcon,1 49750U 21115AC  25127.30104268  .00005435  00000+0  35943-3 0  9999,2 49750  53.2167  84.5610 0001267  60.2095 299.9023 15.08826884189285,15.08826884,0.0001267,LEO
49751,STARLINK-3229,2021,95.44,260.0,+,53.22,Active,1,LEO,USA,USA,Commercial,Communications,Falcon,1 49751U 21115AD  25127.28166693  .00000274  00000+0  35312-4 0  9994,2 49751  53.2170  84.5608 0001518  91.3056 268.8111 15.08841753189283,15.08841753,0.0001518,LEO
49752,STARLINK-3209,2021,95.44,260.0,+,53.22,Active,1,LEO,USA,USA,Commercial,Communications,Falcon,1 49752U 21115AE  25128.11155346  .00000849  00000+0  71439-4 0  9999,2 49752  53.2177  70.9233 0001415  88.8702 271.2452 15.08841080190651,15.0884108,0.0001415,LEO
49753,STARLINK-3200,2021,95.44,260.0,+,53.22,Active,1,LEO,USA,USA,Commercial,Communications,Falcon,1 49753U 21115AF  25127.89255592  .00000179  00000+0  29357-4 0  9996,2 49753  53.2171  81.8932 0001350  99.3622 260.7523 15.08838896189379,15.08838896,0.000135,LEO
49754,STARLINK-3193,2021,95.44,260.0,+,53.22,Active,1,LEO,USA,USA,Commercial,Communications,Falcon,1 49754U 21115AG  25127.12069173 -.00001386  00000+0 -68977-4 0  9995,2 49754  53.2156  75.4666 0002036  71.2630 288.8583 15.08845681189395,15.08845681,0.0002036,LEO
49755,STARLINK-3210,2021,95.44,260.0,+,53.22,Active,1,LEO,USA,USA,Commercial,Communications,Falcon,1 49755U 21115AH  25128.16952104  .00000601  00000+0  55879-4 0  9990,2 49755  53.2177  80.7006 0001392 102.4784 257.6363 15.08836491190523,15.08836491,0.0001392,LEO
49756,STARLINK-3207,2021,95.44,260.0,+,53.22,Active,1,LEO,USA,USA,Commercial,Communications,Falcon,1 49756U 21115AJ  25128.12164028 -.00000848  00000+0 -35171-4 0  9995,2 49756  53.2184  70.8718 0001513  87.6934 272.4231 15.08849188190658,15.08849188,0.0001513,LEO
49757,STARLINK-3197,2021,95.44,260.0,+,53.22,Active,1,LEO,USA,USA,Commercial,Communications,Falcon,1 49757U 21115AK  25128.11523583  .00000100  00000+0  24354-4 0  9990,2 49757  53.2179  70.9059 0001525  99.2108 260.9056 15.08838118190655,15.08838118,0.0001525,LEO
49758,STARLINK-3194,2021,95.44,260.0,+,53.22,Active,1,LEO,USA,USA,Commercial,Communications,Falcon,1 49758U 21115AL  25128.12900342 -.00002604  00000+0 -14566-3 0  9990,2 49758  53.2180  70.8357 0001241  88.2728 271.8407 15.08826595190656,15.08826595,0.0001241,LEO
49759,STARLINK-3204,2021,95.44,260.0,+,53.22,Active,1,LEO,USA,USA,Commercial,Communications,Falcon,1 49759U 21115AM  25128.11795928  .00000302  00000+0  37097-4 0  9998,2 49759  53.2176  70.8854 0001402  91.0385 269.0768 15.08835285190659,15.08835285,0.0001402,LEO
49760,STARLINK-3199,2021,95.44,260.0,+,53.22,Active,1,LEO,USA,USA,Commercial,Communications,Falcon,1 49760U 21115AN  25127.87139972 -.00000164  00000+0  77615-5 0  9991,2 49760  53.2174  71.9893 0001381  85.4029 274.7121 15.08832688190629,15.08832688,0.0001381,LEO
49761,STARLINK-3203,2021,95.44,260.0,+,53.22,Active,1,LEO,USA,USA,Commercial,Communications,Falcon,1 49761U 21115AP  25128.12531609 -.00001379  00000+0 -68577-4 0  9990,2 49761  53.2172  70.8503 0001367  91.0036 269.1113 15.08831313190655,15.08831313,0.0001367,LEO
49762,STARLINK-3195,2021,95.44,260.0,+,53.22,Active,1,LEO,USA,USA,Commercial,Communications,Falcon,1 49762U 21115AQ  25128.14371680  .00000691  00000+0  61492-4 0  9997,2 49762  53.2170  70.7681 0001278  90.7489 269.3650 15.08839946190668,15.08839946,0.0001278,LEO
49763,STARLINK-3198,2021,95.44,260.0,+,53.22,Active,1,LEO,USA,USA,Commercial,Communications,Falcon,1 49763U 21115AR  25128.13270083  .00000534  00000+0  51653-4 0  9996,2 49763  53.2185  70.8249 0001210  71.8941 288.2183 15.08823026190668,15.08823026,0.000121,LEO
49765,STARLINK-3227,2021,95.44,260.0,+,53.22,Active,1,LEO,USA,USA,Commercial,Communications,Falcon,1 49765U 21115AT  25128.14100083 -.00000272  00000+0  10060-5 0  9999,2 49765  53.2186  70.7899 0001515  88.4139 271.7026 15.08829956190663,15.08829956,0.0001515,LEO
49766,STARLINK-3190,2021,95.44,260.0,+,53.22,Active,1,LEO,USA,USA,Commercial,Communications,Falcon,1 49766U 21115AU  25127.22835445  .00000168  00000+0  28644-4 0  9994,2 49766  53.2172  74.8862 0001440  93.4103 266.7054 15.08831540190520,15.0883154,0.000144,LEO
49767,STARLINK-3192,2021,95.44,260.0,+,53.22,Active,1,LEO,USA,USA,Commercial,Communications,Falcon,1 49767U 21115AV  25127.88234194  .00002449  00000+0  17213-3 0  9994,2 49767  53.2176  71.9390 0000945 113.9703 246.1388 15.08782730189517,15.0878273,9.45e-05,LEO
49768,STARLINK-3196,2021,95.44,260.0,+,53.22,Active,1,LEO,USA,USA,Commercial,Communications,Falcon,1 49768U 21115AW  25128.22835843 -.00003110  00000+0 -17739-3 0  9993,2 49768  53.2172  70.3877 0001363  87.9969 272.1179 15.08844930190673,15.0884493,0.0001363,LEO
49769,STARLINK-3208,2021,95.44,260.0,+,53.22,Active,1,LEO,USA,USA,Commercial,Communications,Falcon,1 49769U 21115AX  25127.23572089  .00000373  00000+0  41509-4 0  9993,2 49769  53.2179  74.8936 0001461  98.3379 261.7779 15.08839384190527,15.08839384,0.0001461,LEO
49770,STARLINK-3191,2021,95.44,260.0,+,53.22,Active,1,LEO,USA,USA,Commercial,Communications,Falcon,1 49770U 21115AY  25128.10419652  .00000369  00000+0  41245-4 0  9990,2 49770  53.2177  70.9947 0001410  84.2872 275.8281 15.08841601190655,15.08841601,0.000141,LEO
